[{"OBJECT_NAME":"STARLINK-31372","OBJECT_ID":"2024-027J","EPOCH":"2026-03-09T22:33:00.676224","MEAN_MOTION":15.30189208,"ECCENTRICITY":8.71e-5,"INCLINATION":53.1594,"RA_OF_ASC_NODE":308.6676,"ARG_OF_PERICENTER":81.1428,"MEAN_ANOMALY":278.9672,"EPHEMERIS_TYPE":0,"CLASSIFICATION_TYPE":"U","NORAD_CAT_ID":58939,"ELEMENT_SET_NO":999,"REV_AT_EPOCH":11736,"BSTAR":0.00013062538,"MEAN_MOTION_DOT":3.51e-5,"MEAN_MOTION_DDOT":0},{"OBJECT_NAME":"SPACEMOBILE-001 DEB","OBJECT_ID":"2024-163F","EPOCH":"2026-03-09T07:17:56.452704","MEAN_MOTION":15.32884299,"ECCENTRICITY":0.00071876,"INCLINATION":52.9956,"RA_OF_ASC_NODE":27.518,"ARG_OF_PERICENTER":196.7865,"MEAN_ANOMALY":163.2898,"EPHEMERIS_TYPE":0,"CLASSIFICATION_TYPE":"U","NORAD_CAT_ID":62369,"ELEMENT_SET_NO":999,"REV_AT_EPOCH":7117,"BSTAR":0.00044817004,"MEAN_MOTION_DOT":0.00014099,"MEAN_MOTION_DDOT":0}]
